{"fetched_at":"2026-03-29T16:36:15Z","count":15609,"tles":[{"name":"STARLINK-11562 [DTC]","line1":"1 62918U 25027M   26087.76096872  .00196351  00000+0  14892-2 0  9990","line2":"2 62918  42.9995 232.5163 0003627 282.0898  77.9563 15.70973811 66194","category":"Starlink"}]}