{
  "norad_id": 62918,
  "name": "STARLINK-11562 [DTC]",
  "history": [
    {
      "epoch": "2026-03-28T18:15:47.697408",
      "apogee_km": 358.5556155737477,
      "perigee_km": 353.66964809586625,
      "latitude_deg": -41.74205362521697,
      "longitude_deg": -175.14700287999585,
      "semi_major_axis_km": 6734.249631834807,
      "eccentricity": 0.00036277,
      "inclination_deg": 42.9995,
      "raan_deg": 232.5163,
      "arg_perigee_deg": 282.0898,
      "mean_anomaly_deg": 77.9563,
      "mean_motion_rev_day": 15.70973811
    }
  ]
}